{
  "norad_id": 63895,
  "name": "STARLINK-34119",
  "history": [
    {
      "epoch": "2026-03-28T15:26:24.895680Z",
      "apogee_km": 483.7068625124921,
      "perigee_km": 482.3538403107932,
      "latitude_deg": -1.3043307360067567e-05,
      "longitude_deg": 11.76670977806181,
      "height_km": 482.91828992501615,
      "semi_major_axis_km": 6861.167351411642,
      "eccentricity": 9.86e-05,
      "inclination_deg": 43.0007,
      "raan_deg": 69.4313,
      "arg_perigee_deg": 260.51,
      "mean_anomaly_deg": 99.564,
      "mean_motion_rev_day": 15.2758626
    },
    {
      "epoch": "2026-03-29T05:33:49.192704Z",
      "apogee_km": 483.3976502010855,
      "perigee_km": 482.55922189480043,
      "latitude_deg": -1.2319262385347424e-05,
      "longitude_deg": 156.01404485195724,
      "height_km": 482.9434968406074,
      "semi_major_axis_km": 6861.115436047943,
      "eccentricity": 6.11e-05,
      "inclination_deg": 43.0031,
      "raan_deg": 66.1099,
      "arg_perigee_deg": 243.233,
      "mean_anomaly_deg": 116.8459,
      "mean_motion_rev_day": 15.27603598
    },
    {
      "epoch": "2026-03-30T05:06:09.852192Z",
      "apogee_km": 483.8507108045187,
      "perigee_km": 482.15106972634294,
      "latitude_deg": -2.6363084514337015e-05,
      "longitude_deg": 156.41933397042655,
      "height_km": 482.69162809158325,
      "semi_major_axis_km": 6861.1378902654305,
      "eccentricity": 0.00012386,
      "inclination_deg": 43.0004,
      "raan_deg": 60.568,
      "arg_perigee_deg": 275.8001,
      "mean_anomaly_deg": 84.2709,
      "mean_motion_rev_day": 15.27596099
    },
    {
      "epoch": "2026-03-30T14:31:06.152448Z",
      "apogee_km": 483.89600334282113,
      "perigee_km": 482.07807991675145,
      "latitude_deg": 9.585420780882035e-06,
      "longitude_deg": 12.581401808187112,
      "height_km": 482.5543410445452,
      "semi_major_axis_km": 6861.124041629786,
      "eccentricity": 0.00013248,
      "inclination_deg": 43.0014,
      "raan_deg": 58.3513,
      "arg_perigee_deg": 283.325,
      "mean_anomaly_deg": 76.7454,
      "mean_motion_rev_day": 15.27600724
    },
    {
      "epoch": "2026-03-30T22:21:53.486784Z",
      "apogee_km": 483.2625422927258,
      "perigee_km": 482.7508381963071,
      "latitude_deg": -1.2534336783162485e-05,
      "longitude_deg": -107.28229135922699,
      "height_km": 482.9989364861576,
      "semi_major_axis_km": 6861.143690244516,
      "eccentricity": 3.729e-05,
      "inclination_deg": 42.9982,
      "raan_deg": 56.5071,
      "arg_perigee_deg": 148.1261,
      "mean_anomaly_deg": 211.9613,
      "mean_motion_rev_day": 15.27594162
    },
    {
      "epoch": "2026-03-31T14:03:27.110880Z",
      "apogee_km": 483.8180451019325,
      "perigee_km": 482.1988147804668,
      "latitude_deg": 3.9647683990009984e-05,
      "longitude_deg": 12.98858959735005,
      "height_km": 482.8036546786166,
      "semi_major_axis_km": 6861.145429941199,
      "eccentricity": 0.000118,
      "inclination_deg": 43.0,
      "raan_deg": 52.8125,
      "arg_perigee_deg": 268.6753,
      "mean_anomaly_deg": 91.3964,
      "mean_motion_rev_day": 15.27593581
    },
    {
      "epoch": "2026-04-01T13:35:47.833440Z",
      "apogee_km": 483.4365137925197,
      "perigee_km": 482.6159186718578,
      "latitude_deg": -1.0664813215359732e-05,
      "longitude_deg": 13.39787716190818,
      "height_km": 482.8261515956896,
      "semi_major_axis_km": 6861.1632162321885,
      "eccentricity": 5.98e-05,
      "inclination_deg": 42.9974,
      "raan_deg": 47.2749,
      "arg_perigee_deg": 266.6137,
      "mean_anomaly_deg": 93.4646,
      "mean_motion_rev_day": 15.27587641
    },
    {
      "epoch": "2026-04-02T20:58:55.479072Z",
      "apogee_km": 483.5404547750759,
      "perigee_km": 482.36844313376605,
      "latitude_deg": 3.5384431403501544e-05,
      "longitude_deg": -106.05678430708274,
      "height_km": 482.89043713937235,
      "semi_major_axis_km": 6861.09144895442,
      "eccentricity": 8.541e-05,
      "inclination_deg": 43.0007,
      "raan_deg": 39.891,
      "arg_perigee_deg": 254.1815,
      "mean_anomaly_deg": 105.8943,
      "mean_motion_rev_day": 15.27611609
    },
    {
      "epoch": "2026-04-03T06:23:50.826336Z",
      "apogee_km": 484.0648125574562,
      "perigee_km": 481.6648341196533,
      "latitude_deg": 2.7760134527650845e-05,
      "longitude_deg": 110.10901834812422,
      "height_km": 482.859460210361,
      "semi_major_axis_km": 6861.0018233385545,
      "eccentricity": 0.0001749,
      "inclination_deg": 43.0024,
      "raan_deg": 37.6741,
      "arg_perigee_deg": 259.5598,
      "mean_anomaly_deg": 100.5057,
      "mean_motion_rev_day": 15.27641542
    },
    {
      "epoch": "2026-04-04T12:12:51.525216Z",
      "apogee_km": 483.80256816144356,
      "perigee_km": 482.2819936092128,
      "latitude_deg": -4.462099879427338e-05,
      "longitude_deg": 14.614693660672314,
      "height_km": 482.4175530990148,
      "semi_major_axis_km": 6861.179280885328,
      "eccentricity": 0.00011081,
      "inclination_deg": 43.0002,
      "raan_deg": 30.6573,
      "arg_perigee_deg": 301.8427,
      "mean_anomaly_deg": 58.2316,
      "mean_motion_rev_day": 15.27582276
    },
    {
      "epoch": "2026-04-05T11:45:11.243808Z",
      "apogee_km": 483.1861637218399,
      "perigee_km": 482.8466738506786,
      "latitude_deg": -1.018021125627669e-06,
      "longitude_deg": 15.025573410607581,
      "height_km": 482.718647699415,
      "semi_major_axis_km": 6861.153418786259,
      "eccentricity": 2.474e-05,
      "inclination_deg": 42.9997,
      "raan_deg": 25.117,
      "arg_perigee_deg": 295.6131,
      "mean_anomaly_deg": 64.4695,
      "mean_motion_rev_day": 15.27590913
    },
    {
      "epoch": "2026-04-06T01:52:35.816448Z",
      "apogee_km": 483.81341153564244,
      "perigee_km": 482.2354816261586,
      "latitude_deg": -6.625250765343855e-06,
      "longitude_deg": 159.2726491008989,
      "height_km": 482.97407695436453,
      "semi_major_axis_km": 6861.161446580901,
      "eccentricity": 0.00011499,
      "inclination_deg": 43.0016,
      "raan_deg": 21.7965,
      "arg_perigee_deg": 257.3328,
      "mean_anomaly_deg": 102.7395,
      "mean_motion_rev_day": 15.27588232
    },
    {
      "epoch": "2026-04-07T01:24:56.604672Z",
      "apogee_km": 484.0404180203168,
      "perigee_km": 482.2260237231094,
      "latitude_deg": 5.124164290875931e-05,
      "longitude_deg": 159.67987394266112,
      "height_km": 482.8656754876463,
      "semi_major_axis_km": 6861.270220871713,
      "eccentricity": 0.00013222,
      "inclination_deg": 43.0006,
      "raan_deg": 16.257,
      "arg_perigee_deg": 272.7959,
      "mean_anomaly_deg": 87.2742,
      "mean_motion_rev_day": 15.27551906
    },
    {
      "epoch": "2026-04-08T10:22:14.363616Z",
      "apogee_km": 483.70025132511,
      "perigee_km": 482.3446234434723,
      "latitude_deg": -1.60778006727012e-05,
      "longitude_deg": 16.24799144900799,
      "height_km": 482.8808233342981,
      "semi_major_axis_km": 6861.159437384291,
      "eccentricity": 9.879e-05,
      "inclination_deg": 42.9994,
      "raan_deg": 8.5026,
      "arg_perigee_deg": 263.0412,
      "mean_anomaly_deg": 97.0327,
      "mean_motion_rev_day": 15.27588903
    },
    {
      "epoch": "2026-04-09T09:54:34.964352Z",
      "apogee_km": 484.8194609058055,
      "perigee_km": 481.21913774929726,
      "latitude_deg": -2.8090290735125364e-05,
      "longitude_deg": 16.656724616103954,
      "height_km": 482.5234813680782,
      "semi_major_axis_km": 6861.156299327551,
      "eccentricity": 0.00026237,
      "inclination_deg": 43.0013,
      "raan_deg": 2.9639,
      "arg_perigee_deg": 278.7419,
      "mean_anomaly_deg": 81.3135,
      "mean_motion_rev_day": 15.27589951
    },
    {
      "epoch": "2026-04-10T01:36:09.711648Z",
      "apogee_km": 484.046051135022,
      "perigee_km": 482.0923912755961,
      "latitude_deg": -5.535966181405647e-05,
      "longitude_deg": 136.92382525884693,
      "height_km": 482.9093670333031,
      "semi_major_axis_km": 6861.206221205309,
      "eccentricity": 0.00014237,
      "inclination_deg": 43.0001,
      "raan_deg": 359.2703,
      "arg_perigee_deg": 266.2776,
      "mean_anomaly_deg": 93.7912,
      "mean_motion_rev_day": 15.27573279
    },
    {
      "epoch": "2026-04-11T16:50:03.678144Z",
      "apogee_km": 483.85826369845745,
      "perigee_km": 482.1896293562613,
      "latitude_deg": 2.0456486335030907e-05,
      "longitude_deg": -102.39014452242947,
      "height_km": 482.73274946277843,
      "semi_major_axis_km": 6861.16094652736,
      "eccentricity": 0.0001216,
      "inclination_deg": 43.0,
      "raan_deg": 350.0423,
      "arg_perigee_deg": 274.6576,
      "mean_anomaly_deg": 85.4137,
      "mean_motion_rev_day": 15.27588399
    },
    {
      "epoch": "2026-04-12T22:39:02.481408Z",
      "apogee_km": 483.9803307870361,
      "perigee_km": 482.12643714528804,
      "latitude_deg": -6.392325371245601e-05,
      "longitude_deg": 162.12203761045373,
      "height_km": 482.8687497062305,
      "semi_major_axis_km": 6861.190383966162,
      "eccentricity": 0.0001351,
      "inclination_deg": 43.0005,
      "raan_deg": 343.0241,
      "arg_perigee_deg": 267.6104,
      "mean_anomaly_deg": 92.4592,
      "mean_motion_rev_day": 15.27578568
    },
    {
      "epoch": "2026-04-14T21:43:43.586112Z",
      "apogee_km": 484.07479331526156,
      "perigee_km": 481.9396052404463,
      "latitude_deg": 4.0327691514696405e-05,
      "longitude_deg": 162.93805287867804,
      "height_km": 482.90204680768596,
      "semi_major_axis_km": 6861.144199277854,
      "eccentricity": 0.0001556,
      "inclination_deg": 43.0,
      "raan_deg": 331.9447,
      "arg_perigee_deg": 263.6516,
      "mean_anomaly_deg": 96.4159,
      "mean_motion_rev_day": 15.27593992
    }
  ]
}